KUIPER-00157            
1 65970U 25228Z   25364.22090781  .00051408  00000+0  14074-2 0  9990
2 65970  51.8806 296.2289 0007565  93.9128 266.2724 15.36803730 13100
KUIPER-00144            
1 67133U 25301A   25364.73447573  .00019473  00000+0  56225-3 0  9997
2 67133  51.8706  38.3575 0006490 134.6208 225.5308 15.35661785  3132
KUIPER-00164            
1 67134U 25301B   25364.66276198  .00052242  00000+0  14523-2 0  9998
2 67134  51.8725  38.6285 0003301 113.8089 246.3243 15.36339454  3303
KUIPER-00175            
1 67135U 25301C   25364.72331192  .00046043  00000+0  12641-2 0  9993
2 67135  51.8739  38.2793 0002114  77.0372 283.0850 15.36786022  3204
KUIPER-00179            
1 67136U 25301D   25364.72629854  .00047055  00000+0  13092-2 0  9994
2 67136  51.8733  38.3015 0003401  89.8416 270.2960 15.36360229  3316
KUIPER-00181            
1 67137U 25301E   25364.74430255  .00036533  00000+0  10787-2 0  9999
2 67137  51.8648  38.4181 0010493 158.1600 201.9835 15.34567209  3295
KUIPER-00183            
1 67138U 25301F   25364.74736042  .00030691  00000+0  91662-3 0  9994
2 67138  51.8629  38.4360 0010927 160.7184 199.4216 15.34290161  3308
KUIPER-00184            
1 67139U 25301G   25364.74355331  .00037422  00000+0  11039-2 0  9991
2 67139  51.8639  38.4126 0009116 156.3896 203.7509 15.34598982  3417
